{
  "type": "FeatureCollection",
  "features": [
    {
      "type": "Feature",
      "properties": {
        "norad_id": 66590,
        "name": "STARLINK-35429",
        "group": "last-30-days",
        "lat": -37.930629325720375,
        "lon": 36.159479876955075,
        "alt_km": 436.78660038920316,
        "timestamp": "2025-12-18T10:51:24.513920+00:00",
        "meta_object_name": "STARLINK-35429",
        "meta_object_id": "2025-270C",
        "meta_epoch": "2025-12-17T21:23:01.164480",
        "meta_mean_motion": 15.44309432,
        "meta_eccentricity": 0.00016003,
        "meta_inclination": 42.9986,
        "meta_ra_of_asc_node": 162.6529,
        "meta_arg_of_pericenter": 256.5021,
        "meta_mean_anomaly": 103.5659,
        "meta_ephemeris_type": 0,
        "meta_classification_type": "U",
        "meta_norad_cat_id": 66590,
        "meta_element_set_no": 999,
        "meta_rev_at_epoch": 525,
        "meta_bstar": -0.0084131326,
        "meta_mean_motion_dot": -0.00378234,
        "meta_mean_motion_ddot": 0,
        "tle_line1": "1 66590U 25270C   25351.89098570 -.00378234  00000+0 -84131-2 0  9991",
        "tle_line2": "2 66590  42.9986 162.6529 0001600 256.5021 103.5659 15.44309432  5251"
      },
      "geometry": {
        "type": "Point",
        "coordinates": [
          36.159479876955075,
          -37.930629325720375
        ]
      }
    },
    {
      "type": "Feature",
      "properties": {
        "norad_id": 66591,
        "name": "STARLINK-36058",
        "group": "last-30-days",
        "lat": -42.2270636628055,
        "lon": 82.39954197986901,
        "alt_km": 416.386622368861,
        "timestamp": "2025-12-18T10:51:24.513930+00:00",
        "meta_object_name": "STARLINK-36058",
        "meta_object_id": "2025-270D",
        "meta_epoch": "2025-12-17T19:44:34.946880",
        "meta_mean_motion": 15.50587002,
        "meta_eccentricity": 0.00024667,
        "meta_inclination": 42.9987,
        "meta_ra_of_asc_node": 162.9977,
        "meta_arg_of_pericenter": 279.3538,
        "meta_mean_anomaly": 80.7043,
        "meta_ephemeris_type": 0,
        "meta_classification_type": "U",
        "meta_norad_cat_id": 66591,
        "meta_element_set_no": 999,
        "meta_rev_at_epoch": 513,
        "meta_bstar": 0.0013787493,
        "meta_mean_motion_dot": 0.00081416,
        "meta_mean_motion_ddot": 0,
        "tle_line1": "1 66591U 25270D   25351.82262670  .00081416  00000+0  13787-2 0  9999",
        "tle_line2": "2 66591  42.9987 162.9977 0002466 279.3538  80.7043 15.50587002  5138"
      },
      "geometry": {
        "type": "Point",
        "coordinates": [
          82.39954197986901,
          -42.2270636628055
        ]
      }
    },
    {
      "type": "Feature",
      "properties": {
        "norad_id": 66592,
        "name": "STARLINK-36066",
        "group": "last-30-days",
        "lat": 41.225401474171065,
        "lon": -90.3656736263259,
        "alt_km": 438.30901104750683,
        "timestamp": "2025-12-18T10:51:24.513961+00:00",
        "meta_object_name": "STARLINK-36066",
        "meta_object_id": "2025-270E",
        "meta_epoch": "2025-12-17T22:00:01.999584",
        "meta_mean_motion": 15.40661166,
        "meta_eccentricity": 0.00014741,
        "meta_inclination": 42.999,
        "meta_ra_of_asc_node": 162.8287,
        "meta_arg_of_pericenter": 279.0675,
        "meta_mean_anomaly": 91.045,
        "meta_ephemeris_type": 0,
        "meta_classification_type": "U",
        "meta_norad_cat_id": 66592,
        "meta_element_set_no": 999,
        "meta_rev_at_epoch": 513,
        "meta_bstar": 0.0022172832,
        "meta_mean_motion_dot": 0.00093338,
        "meta_mean_motion_ddot": 0,
        "tle_line1": "1 66592U 25270E   25351.91668981  .00093338  00000+0  22173-2 0  9990",
        "tle_line2": "2 66592  42.9990 162.8287 0001474 279.0675  91.0450 15.40661166  5133"
      },
      "geometry": {
        "type": "Point",
        "coordinates": [
          -90.3656736263259,
          41.225401474171065
        ]
      }
    },
    {
      "type": "Feature",
      "properties": {
        "norad_id": 66593,
        "name": "STARLINK-36031",
        "group": "last-30-days",
        "lat": -8.111263483126914,
        "lon": -11.672762660550733,
        "alt_km": 444.6668667877466,
        "timestamp": "2025-12-18T10:51:24.513972+00:00",
        "meta_object_name": "STARLINK-36031",
        "meta_object_id": "2025-270F",
        "meta_epoch": "2025-12-17T22:00:01.999584",
        "meta_mean_motion": 15.4064678,
        "meta_eccentricity": 0.00016392,
        "meta_inclination": 42.9991,
        "meta_ra_of_asc_node": 162.617,
        "meta_arg_of_pericenter": 276.4256,
        "meta_mean_anomaly": 180.794,
        "meta_ephemeris_type": 0,
        "meta_classification_type": "U",
        "meta_norad_cat_id": 66593,
        "meta_element_set_no": 999,
        "meta_rev_at_epoch": 523,
        "meta_bstar": 0.0019931991,
        "meta_mean_motion_dot": 0.00083728,
        "meta_mean_motion_ddot": 0,
        "tle_line1": "1 66593U 25270F   25351.91668981  .00083728  00000+0  19932-2 0  9992",
        "tle_line2": "2 66593  42.9991 162.6170 0001639 276.4256 180.7940 15.40646780  5239"
      },
      "geometry": {
        "type": "Point",
        "coordinates": [
          -11.672762660550733,
          -8.111263483126914
        ]
      }
    },
    {
      "type": "Feature",
      "properties": {
        "norad_id": 66594,
        "name": "STARLINK-36032",
        "group": "last-30-days",
        "lat": -41.74646413440807,
        "lon": 86.02880427107185,
        "alt_km": 418.99255387472476,
        "timestamp": "2025-12-18T10:51:24.513986+00:00",
        "meta_object_name": "STARLINK-36032",
        "meta_object_id": "2025-270G",
        "meta_epoch": "2025-12-17T19:43:17.846976",
        "meta_mean_motion": 15.49804242,
        "meta_eccentricity": 0.00036321,
        "meta_inclination": 42.9993,
        "meta_ra_of_asc_node": 162.9918,
        "meta_arg_of_pericenter": 272.3929,
        "meta_mean_anomaly": 87.6515,
        "meta_ephemeris_type": 0,
        "meta_classification_type": "U",
        "meta_norad_cat_id": 66594,
        "meta_element_set_no": 999,
        "meta_rev_at_epoch": 494,
        "meta_bstar": -0.0040847183,
        "meta_mean_motion_dot": -0.00226912,
        "meta_mean_motion_ddot": 0,
        "tle_line1": "1 66594U 25270G   25351.82173434 -.00226912  00000+0 -40847-2 0  9992",
        "tle_line2": "2 66594  42.9993 162.9918 0003632 272.3929  87.6515 15.49804242  4940"
      },
      "geometry": {
        "type": "Point",
        "coordinates": [
          86.02880427107185,
          -41.74646413440807
        ]
      }
    },
    {
      "type": "Feature",
      "properties": {
        "norad_id": 66595,
        "name": "STARLINK-35711",
        "group": "last-30-days",
        "lat": -40.6028850231306,
        "lon": 92.37988815474824,
        "alt_km": 417.1038970392656,
        "timestamp": "2025-12-18T10:51:24.513996+00:00",
        "meta_object_name": "STARLINK-35711",
        "meta_object_id": "2025-270H",
        "meta_epoch": "2025-12-17T21:15:20.899584",
        "meta_mean_motion": 15.50590901,
        "meta_eccentricity": 0.00015736,
        "meta_inclination": 42.9988,
        "meta_ra_of_asc_node": 162.6103,
        "meta_arg_of_pericenter": 270.6428,
        "meta_mean_anomaly": 89.4252,
        "meta_ephemeris_type": 0,
        "meta_classification_type": "U",
        "meta_norad_cat_id": 66595,
        "meta_element_set_no": 999,
        "meta_rev_at_epoch": 525,
        "meta_bstar": 0.0006504249,
        "meta_mean_motion_dot": 0.00038017,
        "meta_mean_motion_ddot": 0,
        "tle_line1": "1 66595U 25270H   25351.88565856  .00038017  00000+0  65042-3 0  9992",
        "tle_line2": "2 66595  42.9988 162.6103 0001573 270.6428  89.4252 15.50590901  5254"
      },
      "geometry": {
        "type": "Point",
        "coordinates": [
          92.37988815474824,
          -40.6028850231306
        ]
      }
    },
    {
      "type": "Feature",
      "properties": {
        "norad_id": 66596,
        "name": "STARLINK-35811",
        "group": "last-30-days",
        "lat": 42.165880367312795,
        "lon": -123.81091142382566,
        "alt_km": 438.50031464132735,
        "timestamp": "2025-12-18T10:51:24.514009+00:00",
        "meta_object_name": "STARLINK-35811",
        "meta_object_id": "2025-270J",
        "meta_epoch": "2025-12-17T20:30:31.375584",
        "meta_mean_motion": 15.40706381,
        "meta_eccentricity": 0.00019709,
        "meta_inclination": 42.999,
        "meta_ra_of_asc_node": 163.244,
        "meta_arg_of_pericenter": 277.2355,
        "meta_mean_anomaly": 82.8278,
        "meta_ephemeris_type": 0,
        "meta_classification_type": "U",
        "meta_norad_cat_id": 66596,
        "meta_element_set_no": 999,
        "meta_rev_at_epoch": 524,
        "meta_bstar": 0.00051909652,
        "meta_mean_motion_dot": 0.00021446,
        "meta_mean_motion_ddot": 0,
        "tle_line1": "1 66596U 25270J   25351.85452981  .00021446  00000+0  51910-3 0  9991",
        "tle_line2": "2 66596  42.9990 163.2440 0001970 277.2355  82.8278 15.40706381  5246"
      },
      "geometry": {
        "type": "Point",
        "coordinates": [
          -123.81091142382566,
          42.165880367312795
        ]
      }
    }
  ]
}